SPACEBEE-4              
1 43139U 18004AE  22337.23391754  .00478018  00000+0  19541-2 0  9993
2 43139  97.3638  66.9689 0002805 286.1653  73.9308 15.84901356273080
SPACEBEE-7              
1 43816U 18099BL  22336.64627048  .00003611  00000+0  30315-3 0  9997
2 43816  97.6077  40.8554 0012597  53.0284 307.2090 14.98893968217839
SPACEBEE-5              
1 43817U 18099BM  22336.47666374  .00012147  00000+0  86531-3 0  9999
2 43817  97.6189  44.8885 0005519  54.1000 306.0738 15.04732823218005
SPACEBEE-6              
1 43818U 18099BN  22336.92809991  .00005673  00000+0  45337-3 0  9999
2 43818  97.6110  42.3988 0017111  57.1961 303.0908 15.00512625218083
SPACEBEE-21             
1 46300U 20061AE  22337.47775233  .00026026  00000+0  99120-3 0  9996
2 46300  97.4344  47.8702 0000383  80.7787 279.3495 15.26706363124246
SPACEBEE-20             
1 46301U 20061AF  22337.15262223  .00026472  00000+0  10102-2 0  9999
2 46301  97.4379  47.6774 0000180  86.8804 273.2455 15.26637391124191
SPACEBEE-15             
1 46302U 20061AG  22337.47848698  .00031464  00000+0  11190-2 0  9996
2 46302  97.4347  48.4935 0000353 107.2646 252.8633 15.28925705124281
SPACEBEE-19             
1 46303U 20061AH  22336.19118940  .00029963  00000+0  11153-2 0  9995
2 46303  97.4348  46.8721 0000565  68.2888 291.8411 15.27435519124068
SPACEBEE-18             
1 46304U 20061AJ  22336.46788226  .00029978  00000+0  11146-2 0  9994
2 46304  97.4346  47.0942 0000374  83.9452 276.1829 15.27473542124106
SPACEBEE-10             
1 46305U 20061AK  22336.68228066  .00046156  00000+0  14241-2 0  9996
2 46305  97.4348  48.8566 0000248 179.1246 180.9997 15.33427832124239
SPACEBEE-17             
1 46306U 20061AL  22337.44911254  .00029530  00000+0  10611-2 0  9994
2 46306  97.4345  48.4053 0000337 104.9255 255.2022 15.28601174124310
SPACEBEE-11             
1 46307U 20061AM  22336.93621162  .00038674  00000+0  12673-2 0  9993
2 46307  97.4344  48.6492 0000170 152.9086 207.2164 15.31540604124249
SPACEBEE-16             
1 46308U 20061AN  22336.44299139  .00033071  00000+0  11818-2 0  9991
2 46308  97.4348  47.4769 0000069 307.5854  52.5379 15.28757772124124
SPACEBEE-12             
1 46309U 20061AP  22337.15831747  .00037433  00000+0  12615-2 0  9990
2 46309  97.4346  48.6465 0000221 144.5298 215.5957 15.30641732124269
SPACEBEE-13             
1 46310U 20061AQ  22336.64569697  .00033745  00000+0  11638-2 0  9993
2 46310  97.4343  47.9544 0000269 126.9071 233.2194 15.29913878124219
SPACEBEE-14             
1 46311U 20061AR  22336.48464611  .00035662  00000+0  12427-2 0  9993
2 46311  97.4349  47.7198 0000210 118.0423 242.0838 15.29564709124171
SPACEBEENZ-3            
1 46938U 20085K   22336.82140042  .00050083  00000+0  10467-2 0  9997
2 46938  97.4517 117.6373 0010069 199.6411 160.4451 15.45287283113359
SPACEBEENZ-4            
1 46939U 20085L   22337.34265863  .00043395  00000+0  94832-3 0  9992
2 46939  97.4518 117.8660 0010271 197.4964 162.5931 15.43999778113416
SPACEBEENZ-5            
1 46941U 20085N   22337.36390765  .00043380  00000+0  97621-3 0  9990
2 46941  97.4531 117.7072 0010312 197.3048 162.7849 15.43126431113405
SPACEBEENZ-6            
1 46942U 20085P   22337.12046369  .00043305  00000+0  10017-2 0  9993
2 46942  97.4545 117.3247 0010491 198.0503 162.0373 15.42301342113357
SPACEBEE-33             
1 46944U 20085R   22337.39931882  .00626974  00000+0  25527-2 0  9998
2 46944  97.4271 122.0001 0009073 274.2109  85.8124 15.84594901113727
SPACEBEE-32             
1 46946U 20085T   22337.39582481  .00758895  22989-3  26694-2 0  9995
2 46946  97.4245 122.3046 0007891 286.8790  73.1617 15.89124216113745
SPACEBEE-31             
1 46947U 20085U   22336.05226960  .03184423  26233-1  36919-2 0  9993
2 46947  97.4116 121.5019 0011623 307.2284  52.7940 16.13674593113577
SPACEBEENZ-2            
1 46957U 20085AE  22336.82521408  .00053390  00000+0  10668-2 0  9994
2 46957  97.4507 117.9202 0009869 200.1362 159.9499 15.46589214113335
SPACEBEENZ-1            
1 46959U 20085AG  22336.85676193  .00059879  00000+0  11231-2 0  9996
2 46959  97.4500 118.3397 0009643 199.9692 160.1183 15.48394897112887
SPACEBEE-52             
1 47425U 21006N   22336.62050735  .00062516  00000+0  15210-2 0  9995
2 47425  97.4230  39.0407 0007415  36.8143 323.3612 15.40711664104149
SPACEBEE-46             
1 47426U 21006P   22337.02093453  .00039458  00000+0  11733-2 0  9990
2 47426  97.4231  38.1487 0009227  41.5971 318.5972 15.34596514103168
SPACEBEE-47             
1 47427U 21006Q   22336.58722830  .00040489  00000+0  12362-2 0  9994
2 47427  97.4236  37.5076 0009293  44.6825 315.5165 15.33753100103083
SPACEBEE-59             
1 47428U 21006R   22336.60755490  .00036280  00000+0  11377-2 0  9995
2 47428  97.4237  37.3363 0009822  47.5387 312.6683 15.32920918104036
SPACEBEE-62             
1 47429U 21006S   22337.42725486  .00009927  00000+0  44755-3 0  9994
2 47429  97.4196  34.7385 0013162  49.3998 310.8380 15.21152313102997
SPACEBEE-61             
1 47431U 21006U   22336.95494442  .00025935  00000+0  97732-3 0  9999
2 47431  97.4275  34.7883 0005329  64.4375 295.7414 15.27047140102912
SPACEBEE-49             
1 47432U 21006V   22337.40752173  .00025533  00000+0  96922-3 0  9993
2 47432  97.4283  35.1456 0005006  64.9040 295.2717 15.26809619102972
SPACEBEE-60             
1 47433U 21006W   22336.13101827  .00029579  00000+0  11116-2 0  9992
2 47433  97.4284  33.9685 0004956  68.7170 291.4598 15.27111450102787
SPACEBEE-53             
1 47434U 21006X   22336.44727016  .00041974  00000+0  13802-2 0  9998
2 47434  97.4291  35.2955 0003995  66.4035 293.7626 15.31403513103853
SPACEBEE-63             
1 47442U 21006AF  22336.61305565  .00008676  00000+0  43221-3 0  9998
2 47442  97.4234  31.6380 0007088  72.7024 287.4985 15.17784218102693
SPACEBEE-50             
1 47443U 21006AG  22336.63932142  .00026174  00000+0  99519-3 0  9992
2 47443  97.4276  34.4392 0005525  65.3193 294.8621 15.26746739102867
SPACEBEE-51             
1 47444U 21006AH  22336.79983680  .00041214  00000+0  13097-2 0  9991
2 47444  97.4201  35.2502 0004765  63.6159 296.5572 15.32502790102976
SPACEBEE-48             
1 47447U 21006AL  22337.41577682  .00048101  00000+0  13619-2 0  9997
2 47447  97.4178  37.4934 0006974  43.9118 316.2679 15.36109163103188
SPACEBEE-40             
1 47449U 21006AN  22337.45197218  .00040263  00000+0  12587-2 0  9990
2 47449  97.4185  36.8429 0007489  46.6201 313.5664 15.33015864103146
SPACEBEE-41             
1 47451U 21006AQ  22336.62837147  .00038465  00000+0  12134-2 0  9992
2 47451  97.4196  36.0090 0007637  50.3617 309.8298 15.32736609103018
SPACEBEE-42             
1 47455U 21006AU  22336.94821523  .00035752  00000+0  11428-2 0  9993
2 47455  97.4195  36.2177 0007543  48.6898 311.4992 15.32330766103054
SPACEBEE-55             
1 47459U 21006AY  22336.39872513  .00009744  00000+0  46056-3 0  9999
2 47459  97.4156  32.1178 0011853  64.8643 295.3820 15.19540063102752
SPACEBEE-54             
1 47460U 21006AZ  22337.41652783  .00036795  00000+0  11767-2 0  9996
2 47460  97.4202  36.7012 0007490  48.2467 311.9414 15.32310113103127
SPACEBEE-58             
1 47464U 21006BD  22336.44974698  .00040649  00000+0  12404-2 0  9996
2 47464  97.4230  37.3911 0009346  45.5067 314.6938 15.33769215103061
SPACEBEE-57             
1 47465U 21006BE  22336.82342910  .00009027  00000+0  45009-3 0  9998
2 47465  97.4176  31.3047 0006622  78.0781 282.1195 15.17743068102729
SPACEBEE-44             
1 47466U 21006BF  22336.11999565  .00035742  00000+0  12663-2 0  9997
2 47466  97.4205  33.8917 0005349  65.3560 294.8236 15.29010192102820
SPACEBEE-56             
1 47468U 21006BH  22336.14889179  .00031900  00000+0  11606-2 0  9999
2 47468  97.4211  33.7419 0005415  66.9292 293.2518 15.28162911102819
SPACEBEE-45             
1 47470U 21006BK  22337.44294247  .00030531  00000+0  10898-2 0  9993
2 47470  97.4211  35.2219 0005626  61.7727 298.4080 15.28798173103027
SPACEBEE-43             
1 47480U 21006BV  22337.41247704  .00031693  00000+0  11111-2 0  9996
2 47480  97.4204  35.2085 0005145  62.3982 297.7780 15.29381560103025
SPACEBEE-87             
1 47703U 21015E   22337.22750558  .00174883  00000+0  19098-2 0  9990
2 47703  97.3952  57.8526 0005271 212.2832 147.8104 15.62761161 98318
SPACEBEE-86             
1 47704U 21015F   22336.66207011  .00217025  00000+0  21170-2 0  9999
2 47704  97.3920  57.6315 0005095 210.0328 150.0641 15.65508872 98232
SPACEBEE-85             
1 47705U 21015G   22336.63507137  .00227072  00000+0  21507-2 0  9996
2 47705  97.3940  57.6809 0004392 204.8061 155.2989 15.66222034 98255
SPACEBEE-84             
1 47706U 21015H   22337.16916122  .00245561  00000+0  22036-2 0  9995
2 47706  97.3922  58.3265 0004788 216.4866 143.6069 15.67510217 98345
SPACEBEE-83             
1 47707U 21015J   22336.95732280  .00292660  00000+0  22426-2 0  9998
2 47707  97.3876  58.2527 0005946 235.5171 124.5531 15.71220242 98323
SPACEBEE-82             
1 47708U 21015K   22337.06922878  .00365478  00000+0  23000-2 0  9993
2 47708  97.3870  58.8677 0004379 232.7060 127.3806 15.75661233 98379
SPACEBEE-81             
1 47709U 21015L   22337.20428435  .00492883  00000+0  26481-2 0  9997
2 47709  97.3873  59.3228 0003255 231.3313 128.7663 15.78918972 98339
SPACEBEE-78             
1 47710U 21015M   22337.09384299  .03582497  29195-1  33575-2 0  9999
2 47710  97.3791  60.2365 0010054 290.1803  69.8402 16.15966008 98460
SPACEBEE-80             
1 47712U 21015P   22337.47314353  .00779695  24519-3  26784-2 0  9993
2 47712  97.3867  60.0426 0006350 274.1681  85.8866 15.89621284 98480
SPACEBEE-79             
1 47715U 21015R   22336.98480355  .00670433  00000+0  28117-2 0  9994
2 47715  97.3923  59.4487 0003540 251.5232 108.5653 15.83887904 98398
SPACEBEE-65             
1 48626U 21006ES  22337.37845953  .00040211  00000+0  12033-2 0  9994
2 48626  97.1869  20.0599 0010343  25.1566 335.0179 15.34379938103193
